<?xml version="1.0" encoding="UTF-8"?>
<kml xmlns="http://www.opengis.net/kml/2.2"><Document><name>Nepal 2026 Updated Investigation Map</name>

<Style id="src"><IconStyle><scale>1.4</scale><Icon><href>http://maps.google.com/mapfiles/kml/paddle/red-stars.png</href></Icon></IconStyle></Style>
<Style id="china"><IconStyle><scale>1.2</scale><Icon><href>http://maps.google.com/mapfiles/kml/paddle/purple-circle.png</href></Icon></IconStyle></Style>
<Style id="proj"><IconStyle><scale>1.05</scale><Icon><href>http://maps.google.com/mapfiles/kml/paddle/orange-circle.png</href></Icon></IconStyle></Style>
<Style id="flood"><IconStyle><scale>.95</scale><Icon><href>http://maps.google.com/mapfiles/kml/paddle/blu-circle.png</href></Icon></IconStyle></Style>
<Style id="move"><IconStyle><scale>1.25</scale><Icon><href>http://maps.google.com/mapfiles/kml/paddle/ylw-stars.png</href></Icon></IconStyle></Style>
<Style id="radius"><LineStyle><color>ff00a5ff</color><width>3</width></LineStyle><PolyStyle><color>2200a5ff</color></PolyStyle></Style>
<Style id="dist"><LineStyle><color>ff00a5ff</color><width>2</width></LineStyle></Style>
<Style id="flowline"><LineStyle><color>ffff5500</color><width>5</width></LineStyle></Style>

<Folder><name>1 - Source &amp; pre-collapse movement</name>
<Placemark><name>USGS collapse source</name><styleUrl>#src</styleUrl><description><![CDATA[<p>Collapse source / seismic reference. Nature later reported pre-collapse acceleration near the failure zone.</p><p><b>Sources / visuals:</b><br><a href="https://earthquake.usgs.gov/earthquakes/eventpage/us7000tbwb/executive">https://earthquake.usgs.gov/earthquakes/eventpage/us7000tbwb/executive</a><br><a href="https://www.nature.com/articles/d41586-026-02746-4">https://www.nature.com/articles/d41586-026-02746-4</a><br></p>]]></description><Point><coordinates>85.515,28.271,0</coordinates></Point></Placemark>
<Placemark><name>Pre-collapse acceleration observation zone</name><styleUrl>#move</styleUrl><description><![CDATA[<p>Sentinel-1 analysis reported by Nature found downhill motion and acceleration of the glacier-rock system before Aug. 26; final observation about a week before collapse.</p><p><b>Sources / visuals:</b><br><a href="https://www.nature.com/articles/d41586-026-02746-4">https://www.nature.com/articles/d41586-026-02746-4</a><br></p>]]></description><Point><coordinates>85.515,28.271,0</coordinates></Point></Placemark>
</Folder>
<Folder><name>2 - 10-mile investigation radius</name><Placemark><name>10-mile radius from USGS source</name><styleUrl>#radius</styleUrl><description><![CDATA[<p>Approximate 10-mile / 16.1-km search radius used for Nepal/China infrastructure sweep. Not a hazard boundary.</p><p><b>Sources / visuals:</b><br><a href="https://www.nature.com/articles/d41586-026-02746-4">https://www.nature.com/articles/d41586-026-02746-4</a><br></p>]]></description><Polygon><outerBoundaryIs><LinearRing><coordinates>85.515,28.415568810636007,0 85.52930652437936,28.415018682665018,0 85.54350416746968,28.413372485558092,0 85.55748487663426,28.41064274786921,0 85.5711422502346,28.406850244550448,0 85.58437234741102,28.402023838842037,0 85.59707447913549,28.39620026260568,0 85.6091519745158,28.389423836772913,0 85.62051291651953,28.38174613403603,0 85.63107084151811,28.373225586348795,0 85.64074539732725,28.363927040223945,0 85.64946295473557,28.353921263212108,0 85.65715716786741,28.343284405318002,0 85.66376947911493,28.33209741945291,0 85.66924956479693,28.320445445334148,0 85.67355571815237,28.308417161520417,0 85.67665516675413,28.296104110514417,0 85.67852432192683,28.28360000206913,0 85.67914895827097,28.271,0 85.67852432192683,28.258399997930873,0 85.67665516675413,28.245895889485585,0 85.67355571815237,28.233582838479585,0 85.66924956479693,28.221554554665854,0 85.66376947911493,28.20990258054709,0 85.65715716786741,28.198715594682,0 85.64946295473557,28.188078736787894,0 85.64074539732725,28.178072959776056,0 85.63107084151811,28.168774413651207,0 85.62051291651953,28.16025386596397,0 85.6091519745158,28.15257616322709,0 85.59707447913549,28.14579973739432,0 85.58437234741102,28.139976161157964,0 85.5711422502346,28.135149755449554,0 85.55748487663426,28.13135725213079,0 85.54350416746968,28.12862751444191,0 85.52930652437936,28.126981317334984,0 85.515,28.126431189363995,0 85.50069347562064,28.126981317334984,0 85.48649583253032,28.12862751444191,0 85.47251512336574,28.13135725213079,0 85.4588577497654,28.135149755449554,0 85.44562765258898,28.139976161157964,0 85.43292552086452,28.14579973739432,0 85.4208480254842,28.15257616322709,0 85.40948708348047,28.16025386596397,0 85.39892915848189,28.168774413651207,0 85.38925460267275,28.178072959776056,0 85.38053704526443,28.188078736787894,0 85.37284283213259,28.198715594682,0 85.36623052088507,28.20990258054709,0 85.36075043520307,28.221554554665854,0 85.35644428184763,28.233582838479585,0 85.35334483324587,28.245895889485585,0 85.35147567807317,28.258399997930873,0 85.35085104172903,28.271,0 85.35147567807317,28.28360000206913,0 85.35334483324587,28.296104110514417,0 85.35644428184763,28.308417161520417,0 85.36075043520307,28.320445445334148,0 85.36623052088507,28.33209741945291,0 85.37284283213259,28.343284405318002,0 85.38053704526443,28.353921263212108,0 85.38925460267275,28.363927040223945,0 85.39892915848189,28.373225586348795,0 85.40948708348047,28.38174613403603,0 85.4208480254842,28.389423836772913,0 85.43292552086452,28.39620026260568,0 85.44562765258898,28.402023838842037,0 85.4588577497654,28.406850244550448,0 85.47251512336574,28.41064274786921,0 85.48649583253032,28.413372485558092,0 85.50069347562064,28.415018682665018,0 85.515,28.415568810636007,0</coordinates></LinearRing></outerBoundaryIs></Polygon></Placemark></Folder>
<Folder><name>3 - China/Tibet &amp; border infrastructure</name>
<Placemark><name>Gyirong Port of Entry (China/Tibet)</name><styleUrl>#china</styleUrl><description><![CDATA[<p>Confirmed Chinese border infrastructure opposite Rasuwagadhi; connected to G216. Existing infrastructure, not a verified blast site.</p><p><b>Sources / visuals:</b><br><a href="https://www.wikidata.org/wiki/Q132573083">https://www.wikidata.org/wiki/Q132573083</a><br><a href="https://www.reuters.com/world/china/china-restores-road-access-tibet-disaster-zone-search-intensifies-2026-09-02/">https://www.reuters.com/world/china/china-restores-road-access-tibet-disaster-zone-search-intensifies-2026-09-02/</a><br></p>]]></description><Point><coordinates>85.37778,28.27972,0</coordinates></Point></Placemark>
<Placemark><name>G216 corridor near Gyirong Port (schematic reference)</name><styleUrl>#china</styleUrl><description><![CDATA[<p>Confirmed G216 highway corridor serving Gyirong Port. Marker is a schematic road-corridor reference, not a construction or blasting coordinate.</p><p><b>Sources / visuals:</b><br><a href="https://www.reuters.com/world/china/china-restores-road-access-tibet-disaster-zone-search-intensifies-2026-09-02/">https://www.reuters.com/world/china/china-restores-road-access-tibet-disaster-zone-search-intensifies-2026-09-02/</a><br><a href="https://www.reuters.com/business/environment/chinese-rescue-work-tibet-flood-disaster-zone-still-trudging-along-days-later-2026-09-01/">https://www.reuters.com/business/environment/chinese-rescue-work-tibet-flood-disaster-zone-still-trudging-along-days-later-2026-09-01/</a><br></p>]]></description><Point><coordinates>85.39,28.3,0</coordinates></Point></Placemark>
<Placemark><name>Timure / Rasuwagadhi dry-port area</name><styleUrl>#china</styleUrl><description><![CDATA[<p>Chinese-financed dry-port / customs infrastructure on Nepal side. July 18 reporting said construction remained stalled after prior flood damage.</p><p><b>Sources / visuals:</b><br><a href="https://english.khabarhub.com/2026/18/559159/">https://english.khabarhub.com/2026/18/559159/</a><br><a href="https://english.nepalnews.com/s/gallery/rasuwagadhi-dry-port-stalled-as-timure-customs-operates-amid-flood-ruins-photo-feature/">https://english.nepalnews.com/s/gallery/rasuwagadhi-dry-port-stalled-as-timure-customs-operates-amid-flood-ruins-photo-feature/</a><br></p>]]></description><Point><coordinates>85.36667,28.25285,0</coordinates></Point></Placemark>
</Folder>
<Folder><name>4 - Hydropower / project reference points</name>
<Placemark><name>Rasuwagadhi Hydropower Project reference</name><styleUrl>#proj</styleUrl><description><![CDATA[<p>111 MW hydropower reference point with major underground works. Project reference, not blast coordinate. Straight-line distance from USGS source: 14.4 km (8.9 mi).</p><p><b>Sources / visuals:</b><br><a href="https://hydro.naxa.com.np/core/datasets/">https://hydro.naxa.com.np/core/datasets/</a><br></p>]]></description><Point><coordinates>85.37013889,28.25111111,0</coordinates></Point></Placemark>
<Placemark><name>Distance: source → Rasuwagadhi Hydropower Project reference (14.4 km / 8.9 mi)</name><styleUrl>#dist</styleUrl><description><![CDATA[<p>Straight-line project-reference distance only. Not a blast propagation path or tunnel connection.</p><p><b>Sources / visuals:</b><br><a href="https://hydro.naxa.com.np/core/datasets/">https://hydro.naxa.com.np/core/datasets/</a><br></p>]]></description><LineString><tessellate>1</tessellate><coordinates>85.515,28.271,0 85.37013889,28.25111111,0</coordinates></LineString></Placemark>
<Placemark><name>Langtang Khola Small Hydropower licensed-area midpoint</name><styleUrl>#proj</styleUrl><description><![CDATA[<p>Approximate licensed-area midpoint. Major underground works documented; not a verified blast coordinate. Straight-line distance from USGS source: 20.0 km (12.4 mi).</p><p><b>Sources / visuals:</b><br><a href="https://doed.gov.np/pages/clhydromorethan1/">https://doed.gov.np/pages/clhydromorethan1/</a><br></p>]]></description><Point><coordinates>85.3568,28.1575,0</coordinates></Point></Placemark>
<Placemark><name>Distance: source → Langtang Khola Small Hydropower licensed-area midpoint (20.0 km / 12.4 mi)</name><styleUrl>#dist</styleUrl><description><![CDATA[<p>Straight-line project-reference distance only. Not a blast propagation path or tunnel connection.</p><p><b>Sources / visuals:</b><br><a href="https://doed.gov.np/pages/clhydromorethan1/">https://doed.gov.np/pages/clhydromorethan1/</a><br></p>]]></description><LineString><tessellate>1</tessellate><coordinates>85.515,28.271,0 85.3568,28.1575,0</coordinates></LineString></Placemark>
<Placemark><name>Upper Trishuli-1 dam published reference</name><styleUrl>#proj</styleUrl><description><![CDATA[<p>216 MW project. IFC documents significant blasting for tunnels, underground facilities and access road. Dam reference is not a blast coordinate. Straight-line distance from USGS source: 26.6 km (16.6 mi).</p><p><b>Sources / visuals:</b><br><a href="https://disclosures.ifc.org/project-detail/ESRS/35701/upper-trishuli-1">https://disclosures.ifc.org/project-detail/ESRS/35701/upper-trishuli-1</a><br><a href="https://nwedcpl.com/project/upper-trishuli-1-hep-216-mw/">https://nwedcpl.com/project/upper-trishuli-1-hep-216-mw/</a><br></p>]]></description><Point><coordinates>85.297894,28.126836,0</coordinates></Point></Placemark>
<Placemark><name>Distance: source → Upper Trishuli-1 dam published reference (26.6 km / 16.6 mi)</name><styleUrl>#dist</styleUrl><description><![CDATA[<p>Straight-line project-reference distance only. Not a blast propagation path or tunnel connection.</p><p><b>Sources / visuals:</b><br><a href="https://disclosures.ifc.org/project-detail/ESRS/35701/upper-trishuli-1">https://disclosures.ifc.org/project-detail/ESRS/35701/upper-trishuli-1</a><br><a href="https://nwedcpl.com/project/upper-trishuli-1-hep-216-mw/">https://nwedcpl.com/project/upper-trishuli-1-hep-216-mw/</a><br></p>]]></description><LineString><tessellate>1</tessellate><coordinates>85.515,28.271,0 85.297894,28.126836,0</coordinates></LineString></Placemark>
<Placemark><name>Mathillo Langtang historical survey-area midpoint</name><styleUrl>#proj</styleUrl><description><![CDATA[<p>Historical survey-license footprint discussed in investigation. Does not establish active construction or blasting in Aug. 2026. Straight-line distance from USGS source: 7.3 km (4.5 mi).</p><p><b>Sources / visuals:</b><br><a href="https://doed.gov.np/pages/hydromorethan1/">https://doed.gov.np/pages/hydromorethan1/</a><br></p>]]></description><Point><coordinates>85.536389,28.208194,0</coordinates></Point></Placemark>
<Placemark><name>Distance: source → Mathillo Langtang historical survey-area midpoint (7.3 km / 4.5 mi)</name><styleUrl>#dist</styleUrl><description><![CDATA[<p>Straight-line project-reference distance only. Not a blast propagation path or tunnel connection.</p><p><b>Sources / visuals:</b><br><a href="https://doed.gov.np/pages/hydromorethan1/">https://doed.gov.np/pages/hydromorethan1/</a><br></p>]]></description><LineString><tessellate>1</tessellate><coordinates>85.515,28.271,0 85.536389,28.208194,0</coordinates></LineString></Placemark>
</Folder>
<Folder><name>5 - Flood corridor &amp; direction</name>
<Placemark><name>Rasuwagadhi border corridor</name><styleUrl>#flood</styleUrl><description><![CDATA[<p>Border corridor struck by debris/flood.</p><p><b>Sources / visuals:</b><br><a href="https://rasuwaflood.org/">https://rasuwaflood.org/</a><br></p>]]></description><Point><coordinates>85.3773,28.2751,0</coordinates></Point></Placemark>
<Placemark><name>Syabrubesi</name><styleUrl>#flood</styleUrl><description><![CDATA[<p>Flood-affected upstream settlement.</p><p><b>Sources / visuals:</b><br><a href="https://www.reuters.com/business/environment/flood-ravaged-nepal-valley-nothing-is-left-standing-2026-09-03/">https://www.reuters.com/business/environment/flood-ravaged-nepal-valley-nothing-is-left-standing-2026-09-03/</a><br></p>]]></description><Point><coordinates>85.33784,28.16282,0</coordinates></Point></Placemark>
<Placemark><name>Mailung</name><styleUrl>#flood</styleUrl><description><![CDATA[<p>Flood/hydropower corridor location.</p><p><b>Sources / visuals:</b><br><a href="https://www.reuters.com/world/asia-pacific/nepal-hydropower-sites-centre-flood-rescue-efforts-2026-08-31/">https://www.reuters.com/world/asia-pacific/nepal-hydropower-sites-centre-flood-rescue-efforts-2026-08-31/</a><br></p>]]></description><Point><coordinates>85.207,28.07177,0</coordinates></Point></Placemark>
<Placemark><name>Betrawati</name><styleUrl>#flood</styleUrl><description><![CDATA[<p>Downstream flood-affected settlement.</p><p><b>Sources / visuals:</b><br><a href="https://www.reuters.com/world/china/chinese-national-rescued-nepal-tunnel-day-after-2-nepalis-pulled-out-alive-2026-09-05/">https://www.reuters.com/world/china/chinese-national-rescued-nepal-tunnel-day-after-2-nepalis-pulled-out-alive-2026-09-05/</a><br></p>]]></description><Point><coordinates>85.18595,27.97311,0</coordinates></Point></Placemark>
<Placemark><name>Trishuli Bazar</name><styleUrl>#flood</styleUrl><description><![CDATA[<p>Major downstream Trishuli corridor settlement.</p><p><b>Sources / visuals:</b><br><a href="https://www.reuters.com/pictures/nepal-heartbreaking-scenes-after-deadly-flash-floods-2026-08-31/">https://www.reuters.com/pictures/nepal-heartbreaking-scenes-after-deadly-flash-floods-2026-08-31/</a><br></p>]]></description><Point><coordinates>85.14899,27.92255,0</coordinates></Point></Placemark>
<Placemark><name>Galchhi</name><styleUrl>#flood</styleUrl><description><![CDATA[<p>Downstream reference; scientific reconstruction reported dramatic river rise.</p><p><b>Sources / visuals:</b><br><a href="https://storymaps.arcgis.com/stories/f2b2425eac544929a7d18f4c90b41d66">https://storymaps.arcgis.com/stories/f2b2425eac544929a7d18f4c90b41d66</a><br></p>]]></description><Point><coordinates>85.00046,27.7974,0</coordinates></Point></Placemark>
<Placemark><name>Devghat</name><styleUrl>#flood</styleUrl><description><![CDATA[<p>Far-downstream recovery area; recovery location is not necessarily death location.</p><p><b>Sources / visuals:</b><br><a href="https://www.reuters.com/business/environment/nepal-begins-mass-burials-unidentified-flood-victims-families-seek-missing-2026-08-30/">https://www.reuters.com/business/environment/nepal-begins-mass-burials-unidentified-flood-victims-families-seek-missing-2026-08-30/</a><br></p>]]></description><Point><coordinates>84.42647,27.74563,0</coordinates></Point></Placemark>
<Placemark><name>Flood-flow direction corridor (schematic centerline)</name><styleUrl>#flowline</styleUrl><description><![CDATA[<p>Schematic centerline through sourced downstream reference points. Use USGS/Rasuwa maps for authoritative flood extent.</p><p><b>Sources / visuals:</b><br><a href="https://www.usgs.gov/media/images/2026-nepal-debris-avalanche-and-flash-flood-map">https://www.usgs.gov/media/images/2026-nepal-debris-avalanche-and-flash-flood-map</a><br><a href="https://rasuwaflood.org/">https://rasuwaflood.org/</a><br></p>]]></description><LineString><tessellate>1</tessellate><coordinates>85.3773,28.2751,0 85.33784,28.16282,0 85.207,28.07177,0 85.18595,27.97311,0 85.14899,27.92255,0 85.00046,27.7974,0 84.42647,27.74563,0</coordinates></LineString></Placemark>
</Folder>
</Document></kml>